start=new Date('2023-07-01T00:00:00.000Z').valueOf();
sats=[{"PERIOD":"95.438","MEAN_MOTION_DDOT":"0.0000000000000","MEAN_MOTION":"15.08836300","INCLINATION":"53.2182","OBJECT_TYPE":"PAYLOAD","MEAN_ANOMALY":"263.6764","PERIAPSIS":"539.005","SITE":"AFETR","FILE":"3946307","TLE_LINE2":"2 53790  53.2182   6.9929 0001087  96.4352 263.6764 15.08836300 44485","EPOCH":"2023-06-30T15:49:07.371840","NORAD_CAT_ID":"53790","MEAN_MOTION_DOT":"0.00000127","ECCENTRICITY":"0.00010870","EPHEMERIS_TYPE":"0","TIME_SYSTEM":"UTC","CENTER_NAME":"EARTH","TLE_LINE1":"1 53790U 22111T   23181.65911310  .00000127  00000-0  26049-4 0  9997","ARG_OF_PERICENTER":"96.4352","LAUNCH_DATE":"2022-09-11","OBJECT_NAME":"STARLINK-4734","GP_ID":"234638971","DECAY_DATE":null,"SEMIMAJOR_AXIS":"6917.892","ELEMENT_SET_NO":"999","APOAPSIS":"540.509","REF_FRAME":"TEME","MEAN_ELEMENT_THEORY":"SGP4","RA_OF_ASC_NODE":"6.9929","CLASSIFICATION_TYPE":"U","RCS_SIZE":"LARGE","REV_AT_EPOCH":"4448","OBJECT_ID":"2022-111T","BSTAR":"0.00002604900000","COUNTRY_CODE":"US"},{"RCS_SIZE":"LARGE","REV_AT_EPOCH":"4448","BSTAR":"0.00032345000000","OBJECT_ID":"2022-111V","COUNTRY_CODE":"US","RA_OF_ASC_NODE":"6.9479","CLASSIFICATION_TYPE":"U","ELEMENT_SET_NO":"999","REF_FRAME":"TEME","APOAPSIS":"540.423","MEAN_ELEMENT_THEORY":"SGP4","LAUNCH_DATE":"2022-09-11","OBJECT_NAME":"STARLINK-4739","GP_ID":"234639473","SEMIMAJOR_AXIS":"6917.906","DECAY_DATE":null,"EPOCH":"2023-06-30T15:38:30.904512","TLE_LINE2":"2 53792  53.2168   6.9479 0000942  98.7236 261.3863 15.08831564 44488","MEAN_MOTION_DOT":"0.00004862","NORAD_CAT_ID":"53792","CENTER_NAME":"EARTH","TIME_SYSTEM":"UTC","ECCENTRICITY":"0.00009420","EPHEMERIS_TYPE":"0","ARG_OF_PERICENTER":"98.7236","TLE_LINE1":"1 53792U 22111V   23181.65174658  .00004862  00000-0  32345-3 0  9990","PERIAPSIS":"539.120","MEAN_ANOMALY":"261.3863","SITE":"AFETR","FILE":"3946307","PERIOD":"95.438","MEAN_MOTION":"15.08831564","INCLINATION":"53.2168","MEAN_MOTION_DDOT":"0.0000000000000","OBJECT_TYPE":"PAYLOAD"},{"PERIAPSIS":"539.014","MEAN_ANOMALY":"265.2200","SITE":"AFETR","FILE":"3946027","EPOCH":"2023-06-29T18:54:34.158240","TLE_LINE2":"2 53793  53.2174  10.7979 0001050  94.8912 265.2200 15.08841507 44355","MEAN_MOTION_DOT":"0.00001031","NORAD_CAT_ID":"53793","TIME_SYSTEM":"UTC","CENTER_NAME":"EARTH","EPHEMERIS_TYPE":"0","ECCENTRICITY":"0.00010500","ARG_OF_PERICENTER":"94.8912","TLE_LINE1":"1 53793U 22111W   23180.78789535  .00001031  00000-0  82837-4 0  9997","PERIOD":"95.437","MEAN_MOTION":"15.08841507","INCLINATION":"53.2174","MEAN_MOTION_DDOT":"0.0000000000000","OBJECT_TYPE":"PAYLOAD","RA_OF_ASC_NODE":"10.7979","CLASSIFICATION_TYPE":"U","RCS_SIZE":"LARGE","REV_AT_EPOCH":"4435","BSTAR":"0.00008283700000","OBJECT_ID":"2022-111W","COUNTRY_CODE":"US","LAUNCH_DATE":"2022-09-11","OBJECT_NAME":"STARLINK-4728","DECAY_DATE":null,"GP_ID":"234631822","SEMIMAJOR_AXIS":"6917.876","ELEMENT_SET_NO":"999","REF_FRAME":"TEME","APOAPSIS":"540.467","MEAN_ELEMENT_THEORY":"SGP4"},{"ARG_OF_PERICENTER":"96.2504","TLE_LINE1":"1 53794U 22111X   23181.65638486  .00000636  00000-0  58041-4 0  9993","TIME_SYSTEM":"UTC","CENTER_NAME":"EARTH","ECCENTRICITY":"0.00011290","EPHEMERIS_TYPE":"0","MEAN_MOTION_DOT":"0.00000636","NORAD_CAT_ID":"53794","EPOCH":"2023-06-30T15:45:11.651904","TLE_LINE2":"2 53794  53.2170   6.9734 0001129  96.2504 263.8617 15.08840110 44487","FILE":"3946307","SITE":"AFETR","PERIAPSIS":"538.964","MEAN_ANOMALY":"263.8617","OBJECT_TYPE":"PAYLOAD","INCLINATION":"53.2170","MEAN_MOTION":"15.08840110","MEAN_MOTION_DDOT":"0.0000000000000","PERIOD":"95.438","COUNTRY_CODE":"US","BSTAR":"0.00005804100000","OBJECT_ID":"2022-111X","RCS_SIZE":"LARGE","REV_AT_EPOCH":"4448","CLASSIFICATION_TYPE":"U","RA_OF_ASC_NODE":"6.9734","MEAN_ELEMENT_THEORY":"SGP4","REF_FRAME":"TEME","APOAPSIS":"540.526","ELEMENT_SET_NO":"999","SEMIMAJOR_AXIS":"6917.880","GP_ID":"234639467","DECAY_DATE":null,"OBJECT_NAME":"STARLINK-4730","LAUNCH_DATE":"2022-09-11"},{"TLE_LINE2":"2 53795  53.2175  12.8296 0001175  92.4302 267.6825 15.08838482 44287","EPOCH":"2023-06-29T07:34:52.574592","NORAD_CAT_ID":"53795","MEAN_MOTION_DOT":"0.00001025","ECCENTRICITY":"0.00011750","EPHEMERIS_TYPE":"0","TIME_SYSTEM":"UTC","CENTER_NAME":"EARTH","TLE_LINE1":"1 53795U 22111Y   23180.31588628  .00001025  00000-0  82481-4 0  9996","ARG_OF_PERICENTER":"92.4302","MEAN_ANOMALY":"267.6825","PERIAPSIS":"538.937","SITE":"AFETR","FILE":"3945766","PERIOD":"95.438","MEAN_MOTION_DDOT":"0.0000000000000","MEAN_MOTION":"15.08838482","INCLINATION":"53.2175","OBJECT_TYPE":"PAYLOAD","REV_AT_EPOCH":"4428","RCS_SIZE":"LARGE","OBJECT_ID":"2022-111Y","BSTAR":"0.00008248100000","COUNTRY_CODE":"US","RA_OF_ASC_NODE":"12.8296","CLASSIFICATION_TYPE":"U","ELEMENT_SET_NO":"999","APOAPSIS":"540.563","REF_FRAME":"TEME","MEAN_ELEMENT_THEORY":"SGP4","LAUNCH_DATE":"2022-09-11","OBJECT_NAME":"STARLINK-4742","SEMIMAJOR_AXIS":"6917.885","GP_ID":"234625617","DECAY_DATE":null},{"PERIOD":"95.438","OBJECT_TYPE":"PAYLOAD","MEAN_MOTION":"15.08838944","INCLINATION":"53.2176","MEAN_MOTION_DDOT":"0.0000000000000","MEAN_MOTION_DOT":"0.00000989","NORAD_CAT_ID":"53796","EPOCH":"2023-06-29T18:50:30.810912","TLE_LINE2":"2 53796  53.2176 350.7097 0000829  89.8142 270.2945 15.08838944 44713","ARG_OF_PERICENTER":"89.8142","TLE_LINE1":"1 53796U 22111Z   23180.78507883  .00000989  00000-0  80235-4 0  9995","TIME_SYSTEM":"UTC","CENTER_NAME":"EARTH","EPHEMERIS_TYPE":"0","ECCENTRICITY":"0.00008290","PERIAPSIS":"539.175","MEAN_ANOMALY":"270.2945","FILE":"3946039","SITE":"AFETR","REF_FRAME":"TEME","APOAPSIS":"540.322","ELEMENT_SET_NO":"999","MEAN_ELEMENT_THEORY":"SGP4","OBJECT_NAME":"STARLINK-4721","LAUNCH_DATE":"2022-09-11","DECAY_DATE":null,"GP_ID":"234632314","SEMIMAJOR_AXIS":"6917.884","REV_AT_EPOCH":"4471","RCS_SIZE":"LARGE","COUNTRY_CODE":"US","BSTAR":"0.00008023500000","OBJECT_ID":"2022-111Z","RA_OF_ASC_NODE":"350.7097","CLASSIFICATION_TYPE":"U"},{"RA_OF_ASC_NODE":"7.1139","CLASSIFICATION_TYPE":"U","RCS_SIZE":"LARGE","REV_AT_EPOCH":"4447","BSTAR":"0.00007510800000","OBJECT_ID":"2022-111AA","COUNTRY_CODE":"US","LAUNCH_DATE":"2022-09-11","OBJECT_NAME":"STARLINK-4723","GP_ID":"234639178","DECAY_DATE":null,"SEMIMAJOR_AXIS":"6917.901","ELEMENT_SET_NO":"999","REF_FRAME":"TEME","APOAPSIS":"540.475","MEAN_ELEMENT_THEORY":"SGP4","PERIAPSIS":"539.056","MEAN_ANOMALY":"274.3271","SITE":"AFETR","FILE":"3946320","EPOCH":"2023-06-30T13:31:17.536224","TLE_LINE2":"2 53797  53.2185   7.1139 0001026  85.7838 274.3271 15.08833381 44471","MEAN_MOTION_DOT":"0.00000908","NORAD_CAT_ID":"53797","TIME_SYSTEM":"UTC","CENTER_NAME":"EARTH","ECCENTRICITY":"0.00010260","EPHEMERIS_TYPE":"0","ARG_OF_PERICENTER":"85.7838","TLE_LINE1":"1 53797U 22111AA  23181.56339741  .00000908  00000-0  75108-4 0  9993","PERIOD":"95.438","MEAN_MOTION":"15.08833381","INCLINATION":"53.2185","MEAN_MOTION_DDOT":"0.0000000000000","OBJECT_TYPE":"PAYLOAD"},{"DECAY_DATE":null,"GP_ID":"234632136","SEMIMAJOR_AXIS":"6917.877","OBJECT_NAME":"STARLINK-4712","LAUNCH_DATE":"2022-09-11","MEAN_ELEMENT_THEORY":"SGP4","APOAPSIS":"540.388","REF_FRAME":"TEME","ELEMENT_SET_NO":"999","CLASSIFICATION_TYPE":"U","RA_OF_ASC_NODE":"10.7020","COUNTRY_CODE":"US","OBJECT_ID":"2022-111AB","BSTAR":"0.00002927300000","RCS_SIZE":"LARGE","REV_AT_EPOCH":"4433","OBJECT_TYPE":"PAYLOAD","MEAN_MOTION_DDOT":"0.0000000000000","INCLINATION":"53.2180","MEAN_MOTION":"15.08840954","PERIOD":"95.437","FILE":"3946026","SITE":"AFETR","MEAN_ANOMALY":"262.6677","PERIAPSIS":"539.097","TLE_LINE1":"1 53798U 22111AB  23180.77219694  .00000178  00000-0  29273-4 0  9991","ARG_OF_PERICENTER":"97.4421","ECCENTRICITY":"0.00009330","EPHEMERIS_TYPE":"0","CENTER_NAME":"EARTH","TIME_SYSTEM":"UTC","NORAD_CAT_ID":"53798","MEAN_MOTION_DOT":"0.00000178","TLE_LINE2":"2 53798  53.2180  10.7020 0000933  97.4421 262.6677 15.08840954 44339","EPOCH":"2023-06-29T18:31:57.815616"},{"OBJECT_TYPE":"PAYLOAD","MEAN_MOTION_DDOT":"0.0000000000000","INCLINATION":"53.2190","MEAN_MOTION":"15.08837071","PERIOD":"95.438","FILE":"3946307","SITE":"AFETR","MEAN_ANOMALY":"261.8775","PERIAPSIS":"539.027","TLE_LINE1":"1 53799U 22111AC  23181.66003612  .00000545  00000-0  52320-4 0  9999","ARG_OF_PERICENTER":"98.2337","ECCENTRICITY":"0.00010510","EPHEMERIS_TYPE":"0","CENTER_NAME":"EARTH","TIME_SYSTEM":"UTC","NORAD_CAT_ID":"53799","MEAN_MOTION_DOT":"0.00000545","TLE_LINE2":"2 53799  53.2190 357.0184 0001051  98.2337 261.8775 15.08837071 44602","EPOCH":"2023-06-30T15:50:27.120768","GP_ID":"234638970","SEMIMAJOR_AXIS":"6917.889","DECAY_DATE":null,"OBJECT_NAME":"STARLINK-4710","LAUNCH_DATE":"2022-09-11","MEAN_ELEMENT_THEORY":"SGP4","APOAPSIS":"540.481","REF_FRAME":"TEME","ELEMENT_SET_NO":"999","CLASSIFICATION_TYPE":"U","RA_OF_ASC_NODE":"357.0184","COUNTRY_CODE":"US","OBJECT_ID":"2022-111AC","BSTAR":"0.00005232000000","REV_AT_EPOCH":"4460","RCS_SIZE":"LARGE"},{"PERIOD":"95.438","MEAN_MOTION_DDOT":"0.0000000000000","MEAN_MOTION":"15.08835064","INCLINATION":"53.2182","OBJECT_TYPE":"PAYLOAD","TLE_LINE2":"2 53800  53.2182 357.0405 0000942 103.8077 256.3020 15.08835064 44606","EPOCH":"2023-06-30T15:55:45.738048","NORAD_CAT_ID":"53800","MEAN_MOTION_DOT":"-0.00001231","ECCENTRICITY":"0.00009420","EPHEMERIS_TYPE":"0","TIME_SYSTEM":"UTC","CENTER_NAME":"EARTH","TLE_LINE1":"1 53800U 22111AD  23181.66372382 -.00001231  00000-0 -59260-4 0  9990","ARG_OF_PERICENTER":"103.8077","MEAN_ANOMALY":"256.3020","PERIAPSIS":"539.109","SITE":"AFETR","FILE":"3946322","ELEMENT_SET_NO":"999","APOAPSIS":"540.412","REF_FRAME":"TEME","MEAN_ELEMENT_THEORY":"SGP4","LAUNCH_DATE":"2022-09-11","OBJECT_NAME":"STARLINK-4720","GP_ID":"234639507","DECAY_DATE":null,"SEMIMAJOR_AXIS":"6917.895","RCS_SIZE":"LARGE","REV_AT_EPOCH":"4460","OBJECT_ID":"2022-111AD","BSTAR":"-0.00005926000000","COUNTRY_CODE":"US","RA_OF_ASC_NODE":"357.0405","CLASSIFICATION_TYPE":"U"}];
